CCSDS_OMM_VERS,COMMENT,CREATION_DATE,ORIGINATOR,OBJECT_NAME,OBJECT_ID,CENTER_NAME,REF_FRAME,TIME_SYSTEM,MEAN_ELEMENT_THEORY,EPOCH,MEAN_MOTION,ECCENTRICITY,INCLINATION,RA_OF_ASC_NODE,ARG_OF_PERICENTER,MEAN_ANOMALY,EPHEMERIS_TYPE,CLASSIFICATION_TYPE,NORAD_CAT_ID,ELEMENT_SET_NO,REV_AT_EPOCH,BSTAR,MEAN_MOTION_DOT,MEAN_MOTION_DDOT,SEMIMAJOR_AXIS,PERIOD,APOAPSIS,PERIAPSIS,OBJECT_TYPE,RCS_SIZE,COUNTRY_CODE,LAUNCH_DATE,SITE,DECAY_DATE,FILE,GP_ID,TLE_LINE0,TLE_LINE1,TLE_LINE2
"2.0","GENERATED VIA SPACE-TRACK.ORG API","2023-01-02T17:42:09","18 SPCS","BLOCK DM-SL R/B","2006-034B","EARTH","TEME","UTC","SGP4","2023-01-02T13:52:54.936768","2.12151832","0.63648430","1.0118","323.6841","244.9401","2.6233","0","U","29350","999","12684","0.00000000000000","-0.00000014","0.0000000000000","25584.130","678.759","35489.892","2922.098","ROCKET BODY","LARGE","SEAL","2006-08-22","SEAL","","3729583","222018013","0 BLOCK DM-SL R/B","1 29350U 06034B   23002.57841362 -.00000014  00000-0  00000-0 0  9991","2 29350   1.0118 323.6841 6364843 244.9401   2.6233  2.12151832126849"
"2.0","GENERATED VIA SPACE-TRACK.ORG API","2023-01-01T17:55:23","18 SPCS","BLOCK DM-SL R/B","2006-034B","EARTH","TEME","UTC","SGP4","2023-01-01T13:39:42.493248","2.12151788","0.63648030","1.0117","323.7997","244.6038","311.8781","0","U","29350","999","12682","0.00000000000000","-0.00000021","0.0000000000000","25584.133","678.759","35489.795","2922.201","ROCKET BODY","LARGE","SEAL","2006-08-22","SEAL","","3728759","221917850","0 BLOCK DM-SL R/B","1 29350U 06034B   23001.56924182 -.00000021  00000-0  00000-0 0  9999","2 29350   1.0117 323.7997 6364803 244.6038 311.8781  2.12151788126821"
"2.0","GENERATED VIA SPACE-TRACK.ORG API","2023-01-02T02:38:49","18 SPCS","BLOCK DM-SL R/B","2006-034B","EARTH","TEME","UTC","SGP4","2023-01-01T20:25:42.734784","2.12151793","0.63648210","1.0117","323.7512","244.7139","167.2125","0","U","29350","999","12683","0.00000000000000","-0.00000018","0.0000000000000","25584.133","678.759","35489.841","2922.155","ROCKET BODY","LARGE","SEAL","2006-08-22","SEAL","","3728952","221975710","0 BLOCK DM-SL R/B","1 29350U 06034B   23001.85118906 -.00000018  00000-0  00000-0 0  9996","2 29350   1.0117 323.7512 6364821 244.7139 167.2125  2.12151793126839"
"2.0","GENERATED VIA SPACE-TRACK.ORG API","2023-01-01T17:55:23","18 SPCS","CZ-3 DEB","1984-035D","EARTH","TEME","UTC","SGP4","2023-01-01T03:03:50.262048","2.53454122","0.69927880","30.6504","340.1901","154.8680","269.1077","0","U","29445","999","633","0.00430220000000","0.00000968","0.0000000000000","22723.171","568.150","32234.868","455.204","DEBRIS","MEDIUM","PRC","1984-04-08","XSC","","3728759","221918855","0 CZ-3 DEB","1 29445U 84035D   23001.12766507  .00000968  00000-0  43022-2 0  9990","2 29445  30.6504 340.1901 6992788 154.8680 269.1077  2.53454122  6335"
"2.0","GENERATED VIA SPACE-TRACK.ORG API","2023-01-02T17:42:09","18 SPCS","NAVSTAR 58 (USA 190)","2006-042A","EARTH","TEME","UTC","SGP4","2023-01-02T13:26:49.661664","2.00567653","0.01067650","54.6975","201.3631","26.8629","330.1805","0","U","29486","999","11908","0.00000000000000","0.00000105","0.0000000000000","26559.990","717.962","20465.423","19898.288","PAYLOAD","LARGE","US","2006-09-25","AFETR","","3729583","222017016","0 NAVSTAR 58 (USA 190)","1 29486U 06042A   23002.56029701  .00000105  00000-0  00000-0 0  9994","2 29486  54.6975 201.3631 0106765  26.8629 330.1805  2.00567653119084"
"2.0","GENERATED VIA SPACE-TRACK.ORG API","2023-01-01T17:55:23","18 SPCS","NAVSTAR 58 (USA 190)","2006-042A","EARTH","TEME","UTC","SGP4","2023-01-01T13:30:07.545312","2.00567697","0.01067570","54.6975","201.4028","26.8377","329.7910","0","U","29486","999","11906","0.00000000000000","0.00000104","0.0000000000000","26559.986","717.962","20465.398","19898.305","PAYLOAD","LARGE","US","2006-09-25","AFETR","","3728759","221919357","0 NAVSTAR 58 (USA 190)","1 29486U 06042A   23001.56258733  .00000104  00000-0  00000-0 0  9991","2 29486  54.6975 201.4028 0106757  26.8377 329.7910  2.00567697119063"
"2.0","GENERATED VIA SPACE-TRACK.ORG API","2023-01-02T02:38:49","18 SPCS","ARIANE 5 R/B","2006-043E","EARTH","TEME","UTC","SGP4","2023-01-01T11:02:45.157632","3.43727244","0.64406530","7.1238","98.6042","215.6719","76.0090","0","U","29498","999","17064","0.00112400000000","0.00014022","0.0000000000000","18546.382","418.937","24113.328","223.166","ROCKET BODY","LARGE","FR","2006-10-13","FRGUI","","3728952","221976717","0 ARIANE 5 R/B","1 29498U 06043E   23001.46024488  .00014022  00000-0  11240-2 0  9996","2 29498   7.1238  98.6042 6440653 215.6719  76.0090  3.43727244170649"
"2.0","GENERATED VIA SPACE-TRACK.ORG API","2023-01-03T02:40:54","18 SPCS","ARIANE 5 R/B","2006-043E","EARTH","TEME","UTC","SGP4","2023-01-02T21:52:54.806880","3.43766771","0.64404130","7.1264","97.6132","217.6443","72.2175","0","U","29498","999","17069","0.00105540000000","0.00013105","0.0000000000000","18544.960","418.889","24110.546","223.105","ROCKET BODY","LARGE","FR","2006-10-13","FRGUI","","3729873","222050560","0 ARIANE 5 R/B","1 29498U 06043E   23002.91174545  .00013105  00000-0  10554-2 0  9995","2 29498   7.1264  97.6132 6440413 217.6443  72.2175  3.43766771170692"
"2.0","GENERATED VIA SPACE-TRACK.ORG API","2023-01-02T17:42:09","18 SPCS","ARIANE 5 R/B","2006-043E","EARTH","TEME","UTC","SGP4","2023-01-02T07:56:50.542656","3.43750767","0.64405470","7.1255","98.0083","216.8580","73.7027","0","U","29498","999","17067","0.00108820000000","0.00013563","0.0000000000000","18545.536","418.908","24111.741","223.061","ROCKET BODY","LARGE","FR","2006-10-13","FRGUI","","3729583","222016517","0 ARIANE 5 R/B","1 29498U 06043E   23002.33114054  .00013563  00000-0  10882-2 0  9992","2 29498   7.1255  98.0083 6440547 216.8580  73.7027  3.43750767170671"
"2.0","GENERATED VIA SPACE-TRACK.ORG API","2023-01-01T17:55:23","18 SPCS","ARIANE 5 R/B","2006-043E","EARTH","TEME","UTC","SGP4","2023-01-01T11:02:44.880288","3.43726919","0.64406150","7.1238","98.6029","215.6743","76.0051","0","U","29498","999","17064","0.00110110000000","0.00013711","0.0000000000000","18546.394","418.937","24113.277","223.241","ROCKET BODY","LARGE","FR","2006-10-13","FRGUI","","3728759","221918857","0 ARIANE 5 R/B","1 29498U 06043E   23001.46024167  .00013711  00000-0  11011-2 0  9990","2 29498   7.1238  98.6029 6440615 215.6743  76.0051  3.43726919170644"
"2.0","GENERATED VIA SPACE-TRACK.ORG API","2023-01-02T07:56:13","18 SPCS","ARIANE 5 R/B","2006-043E","EARTH","TEME","UTC","SGP4","2023-01-02T00:58:48.811008","3.43742463","0.64405660","7.1249","98.2065","216.4620","74.4643","0","U","29498","999","17068","0.00108040000000","0.00013457","0.0000000000000","18545.835","418.918","24112.267","223.132","ROCKET BODY","LARGE","FR","2006-10-13","FRGUI","","3729197","221999241","0 ARIANE 5 R/B","1 29498U 06043E   23002.04084272  .00013457  00000-0  10804-2 0  9994","2 29498   7.1249  98.2065 6440566 216.4620  74.4643  3.43742463170685"
"2.0","GENERATED VIA SPACE-TRACK.ORG API","2023-01-04T03:14:03","18 SPCS","BREEZE-M R/B","2006-051B","EARTH","TEME","UTC","SGP4","2023-01-02T19:00:38.887200","2.09458097","0.63159530","13.6679","244.2600","159.1398","246.8557","0","U","29527","999","12353","0.00000000000000","-0.00000090","0.0000000000000","25803.012","687.488","35721.938","3127.816","ROCKET BODY","LARGE","CIS","2006-11-08","TTMTR","","3730926","222098868","0 BREEZE-M R/B","1 29527U 06051B   23002.79211675 -.00000090  00000-0  00000-0 0  9992","2 29527  13.6679 244.2600 6315953 159.1398 246.8557  2.09458097123530"
"2.0","GENERATED VIA SPACE-TRACK.ORG API","2023-01-01T17:55:23","18 SPCS","BREEZE-M R/B","2006-051B","EARTH","TEME","UTC","SGP4","2023-01-01T08:41:03.683616","2.09457158","0.63158760","13.6700","244.5490","158.5854","248.3750","0","U","29527","999","12350","0.00000000000000","-0.00000035","0.0000000000000","25803.089","687.491","35721.865","3128.043","ROCKET BODY","LARGE","CIS","2006-11-08","TTMTR","","3728759","221918358","0 BREEZE-M R/B","1 29527U 06051B   23001.36184819 -.00000035  00000-0  00000-0 0  9992","2 29527  13.6700 244.5490 6315876 158.5854 248.3750  2.09457158123505"
"2.0","GENERATED VIA SPACE-TRACK.ORG API","2023-01-03T02:40:54","18 SPCS","BREEZE-M R/B","2006-051B","EARTH","TEME","UTC","SGP4","2023-01-02T19:00:38.688480","2.09458079","0.63159820","13.6677","244.2597","159.1407","246.8539","0","U","29527","999","12353","0.00000000000000","-0.00000090","0.0000000000000","25803.014","687.488","35722.015","3127.742","ROCKET BODY","LARGE","CIS","2006-11-08","TTMTR","","3729873","222051564","0 BREEZE-M R/B","1 29527U 06051B   23002.79211445 -.00000090  00000-0  00000-0 0  9997","2 29527  13.6677 244.2597 6315982 159.1407 246.8539  2.09458079123536"
"2.0","GENERATED VIA SPACE-TRACK.ORG API","2023-01-01T15:26:13","18 SPCS","BREEZE-M R/B","2006-051B","EARTH","TEME","UTC","SGP4","2023-01-01T08:41:03.683616","2.09457158","0.63158760","13.6700","244.5490","158.5854","248.3750","0","U","29527","999","12359","0.00000000000000","-0.00000035","0.0000000000000","25803.089","687.491","35721.865","3128.043","ROCKET BODY","LARGE","CIS","2006-11-08","TTMTR","","3728599","221905809","0 BREEZE-M R/B","1 29527U 06051B   23001.36184819 -.00000035  00000-0  00000+0 0  9991","2 29527  13.6700 244.5490 6315876 158.5854 248.3750  2.09457158123594"
"2.0","GENERATED VIA SPACE-TRACK.ORG API","2023-01-02T02:38:49","18 SPCS","BREEZE-M R/B","2006-051B","EARTH","TEME","UTC","SGP4","2023-01-01T20:07:35.598144","2.09457493","0.63159060","13.6692","244.4526","158.7705","247.8696","0","U","29527","999","12351","0.00000000000000","-0.00000054","0.0000000000000","25803.062","687.490","35721.898","3127.955","ROCKET BODY","LARGE","CIS","2006-11-08","TTMTR","","3728952","221975218","0 BREEZE-M R/B","1 29527U 06051B   23001.83860646 -.00000054  00000-0  00000-0 0  9994","2 29527  13.6692 244.4526 6315906 158.7705 247.8696  2.09457493123511"
